NORAD_CAT_ID,OBJECT_NAME,OBJECT_TYPE,EPOCH,MEAN_MOTION,ECCENTRICITY,INCLINATION,RA_OF_ASC_NODE,ARG_OF_PERICENTER,MEAN_ANOMALY,BSTAR,MEAN_MOTION_DOT,MEAN_MOTION_DDOT,TLE_LINE0,TLE_LINE1,TLE_LINE2,SEMIMAJOR_AXIS,PERIOD,APOGEE,PERIGEE,DECAYED
54794.0,STARLINK-5392,PAYLOAD,2024-07-18 04:03:44,15.12107884,0.0001356,53.2179,200.7883,99.6027,260.512,2.6306e-05,1.61e-06,0.0,0 STARLINK-5392,1 54794U 22175AN  24200.16926925  .00000161  00000-0  26306-4 0  9993,2 54794  53.2179 200.7883 0001356  99.6027 260.5120 15.12107884 87462,6907.91,95.231,530.711,528.838,0.0
54794.0,STARLINK-5392,PAYLOAD,2024-07-18 08:49:16,15.121098,0.0001364,53.2179,199.8938,99.3636,260.7512,3.6965e-05,3.47e-06,0.0,0 STARLINK-5392,1 54794U 22175AN  24200.36755740  .00000347  00000-0  36965-4 0  9998,2 54794  53.2179 199.8938 0001364  99.3636 260.7512 15.12109800 89653,6907.904,95.231,530.711,528.827,0.0
54794.0,STARLINK-5392,PAYLOAD,2024-07-18 16:45:10,15.1211475,0.0001388,53.218,198.4033,101.2585,258.8565,3.9909e-05,3.98e-06,0.0,0 STARLINK-5392,1 54794U 22175AN  24200.69803650  .00000398  00000-0  39909-4 0  9995,2 54794  53.2180 198.4033 0001388 101.2585 258.8565 15.12114750 87540,6907.889,95.231,530.713,528.795,0.0
54794.0,STARLINK-5392,PAYLOAD,2024-07-19 10:12:08,15.12116841,0.000142,53.2181,195.123,103.009,257.1062,-1.8751e-06,-3.3e-06,0.0,0 STARLINK-5392,1 54794U 22175AN  24201.42509806 -.00000330  00000-0 -18751-5 0  9994,2 54794  53.2181 195.1230 0001420 103.0090 257.1062 15.12116841 89811,6907.882,95.231,530.728,528.767,0.0
54794.0,STARLINK-5392,PAYLOAD,2024-07-19 16:32:51,15.12115898,0.000149,53.2189,193.9323,108.4195,251.6961,2.8919e-05,2.06e-06,0.0,0 STARLINK-5392,1 54794U 22175AN  24201.68948289  .00000206  00000-0  28919-4 0  9990,2 54794  53.2189 193.9323 0001490 108.4195 251.6961 15.12115898 89852,6907.885,95.231,530.78,528.721,0.0
54794.0,STARLINK-5392,PAYLOAD,2024-07-20 05:14:15,15.1213966,0.0001765,53.2184,191.54,83.2725,276.8469,0.00018834,2.987e-05,0.0,0 STARLINK-5392,1 54794U 22175AN  24202.21822969  .00002987  00000-0  18834-3 0  9998,2 54794  53.2184 191.5400 0001765  83.2725 276.8469 15.12139660 87775,6907.813,95.229,530.897,528.459,0.0
54794.0,STARLINK-5392,PAYLOAD,2024-07-20 08:24:33,15.12168439,0.0001535,53.2174,190.9446,127.2535,232.8598,0.00038556,6.436e-05,0.0,0 STARLINK-5392,1 54794U 22175AN  24202.35039097  .00006436  00000-0  38556-3 0  9991,2 54794  53.2174 190.9446 0001535 127.2535 232.8598 15.12168439 87793,6907.725,95.227,530.651,528.53,0.0
54794.0,STARLINK-5392,PAYLOAD,2024-07-20 16:20:24,15.12199494,0.0001039,53.2171,189.4532,111.1252,248.9853,0.00054618,9.253e-05,0.0,0 STARLINK-5392,1 54794U 22175AN  24202.68083337  .00009253  00000-0  54618-3 0  9990,2 54794  53.2171 189.4532 0001039 111.1252 248.9853 15.12199494 87849,6907.631,95.226,530.213,528.778,0.0
54794.0,STARLINK-5392,PAYLOAD,2024-07-21 05:01:44,15.12232687,0.0001597,53.2177,187.067,94.3958,265.7218,0.00078154,0.00013388,0.0,0 STARLINK-5392,1 54794U 22175AN  24203.20954389  .00013388  00000-0  78154-3 0  9998,2 54794  53.2177 187.0670 0001597  94.3958 265.7218 15.12232687 87929,6907.53,95.223,530.498,528.292,0.0
54794.0,STARLINK-5392,PAYLOAD,2024-07-21 08:12:03,15.12258138,0.0001406,53.2171,186.4715,124.6074,235.5053,0.00085889,0.00014756,0.0,0 STARLINK-5392,1 54794U 22175AN  24203.34170519  .00014756  00000-0  85889-3 0  9991,2 54794  53.2171 186.4715 0001406 124.6074 235.5053 15.12258138 87944,6907.452,95.222,530.288,528.346,0.0
54794.0,STARLINK-5392,PAYLOAD,2024-07-22 04:49:08,15.12347794,0.0001712,53.2178,182.5912,111.654,248.4636,0.0010816,0.00018718,0.0,0 STARLINK-5392,1 54794U 22175AN  24204.20079601  .00018718  00000-0  10816-2 0  9996,2 54794  53.2178 182.5912 0001712 111.6540 248.4636 15.12347794 88073,6907.179,95.216,530.227,527.862,0.0
54794.0,STARLINK-5392,PAYLOAD,2024-07-22 06:24:18,15.1236864,0.0001661,53.2178,182.2918,131.8916,228.2219,0.00092123,0.00015901,0.0,0 STARLINK-5392,1 54794U 22175AN  24204.26687568  .00015901  00000-0  92123-3 0  9992,2 54794  53.2178 182.2918 0001661 131.8916 228.2219 15.12368640 88087,6907.116,95.215,530.128,527.833,0.0
54794.0,STARLINK-5392,PAYLOAD,2024-07-22 22:15:51,15.12440461,0.0001478,53.2179,179.3105,111.7715,248.3436,0.00073762,0.00012692,0.0,0 STARLINK-5392,1 54794U 22175AN  24204.92767785  .00012692  00000-0  73762-3 0  9997,2 54794  53.2179 179.3105 0001478 111.7715 248.3436 15.12440461 90341,6906.897,95.21,529.783,527.741,0.0
54794.0,STARLINK-5392,PAYLOAD,2024-07-23 04:36:26,15.12480469,0.0002023,53.2177,178.1162,122.5409,237.5781,0.00095851,0.00016611,0.0,0 STARLINK-5392,1 54794U 22175AN  24205.19197079  .00016611  00000-0  95851-3 0  9998,2 54794  53.2177 178.1162 0002023 122.5409 237.5781 15.12480469 88225,6906.775,95.208,530.037,527.243,0.0
54794.0,STARLINK-5392,PAYLOAD,2024-07-23 15:42:28,15.12523349,0.0001588,53.2176,176.0272,143.9856,216.1245,0.0009432,0.0001636,0.0,0 STARLINK-5392,1 54794U 22175AN  24205.65449869  .00016360  00000-0  94320-3 0  9997,2 54794  53.2176 176.0272 0001588 143.9856 216.1245 15.12523349 88291,6906.645,95.205,529.606,527.413,0.0
54794.0,STARLINK-5392,PAYLOAD,2024-07-23 22:03:03,15.12576662,0.0001318,53.2174,174.8367,139.1838,220.9255,0.00067051,0.00011553,0.0,0 STARLINK-5392,1 54794U 22175AN  24205.91879114  .00011553  00000-0  67051-3 0  9996,2 54794  53.2174 174.8367 0001318 139.1838 220.9255 15.12576662 90493,6906.482,95.202,529.258,527.437,0.0
54794.0,STARLINK-5392,PAYLOAD,2024-07-24 04:23:38,15.12597583,0.0001765,53.2173,173.6439,126.1034,234.0123,0.00076614,0.00013255,0.0,0 STARLINK-5392,1 54794U 22175AN  24206.18307904  .00013255  00000-0  76614-3 0  9995,2 54794  53.2173 173.6439 0001765 126.1034 234.0123 15.12597583 88378,6906.419,95.2,529.503,527.065,0.0
54794.0,STARLINK-5392,PAYLOAD,2024-07-24 07:33:54,15.12608961,0.0001938,53.2174,173.0414,142.1624,217.9506,0.00081269,0.00014084,0.0,0 STARLINK-5392,1 54794U 22175AN  24206.31521803  .00014084  00000-0  81269-3 0  9999,2 54794  53.2174 173.0414 0001938 142.1624 217.9506 15.12608961 88391,6906.384,95.2,529.588,526.911,0.0
54794.0,STARLINK-5392,PAYLOAD,2024-07-25 04:10:42,15.12710628,0.0001924,53.2167,169.1644,142.3204,217.7925,0.00077032,0.00013372,0.0,0 STARLINK-5392,1 54794U 22175AN  24207.17410451  .00013372  00000-0  77032-3 0  9992,2 54794  53.2167 169.1644 0001924 142.3204 217.7925 15.12710628 88527,6906.075,95.193,529.268,526.611,0.0
54794.0,STARLINK-5392,PAYLOAD,2024-07-26 03:57:42,15.1280694,0.0002155,53.2175,164.6918,141.1457,218.9692,0.00077989,0.00013579,0.0,0 STARLINK-5392,1 54794U 22175AN  24208.16507317  .00013579  00000-0  77989-3 0  9990,2 54794  53.2175 164.6918 0002155 141.1457 218.9692 15.12806940 88677,6905.782,95.187,529.135,526.158,0.0
54794.0,STARLINK-5392,PAYLOAD,2024-07-26 07:07:58,15.12813031,0.0002263,53.217,164.0887,148.6124,211.5006,0.00069286,0.0001203,0.0,0 STARLINK-5392,1 54794U 22175AN  24208.29720478  .00012030  00000-0  69286-3 0  9991,2 54794  53.2170 164.0887 0002263 148.6124 211.5006 15.12813031 90854,6905.763,95.187,529.191,526.065,0.0
54794.0,STARLINK-5392,PAYLOAD,2024-07-26 21:24:06,15.12886377,0.0002161,53.2179,161.4164,152.936,207.1747,0.00055539,9.6e-05,0.0,0 STARLINK-5392,1 54794U 22175AN  24208.89174303  .00009600  00000-0  55539-3 0  9992,2 54794  53.2179 161.4164 0002161 152.9360 207.1747 15.12886377 88784,6905.54,95.182,528.897,525.913,0.0
54794.0,STARLINK-5392,PAYLOAD,2024-07-27 03:44:35,15.12919093,0.0001958,53.2167,160.2148,145.8676,214.2444,0.00072993,0.00012729,0.0,0 STARLINK-5392,1 54794U 22175AN  24209.15596458  .00012729  00000-0  72993-3 0  9990,2 54794  53.2167 160.2148 0001958 145.8676 214.2444 15.12919093 88824,6905.44,95.18,528.657,525.953,0.0
54794.0,STARLINK-5392,PAYLOAD,2024-07-27 21:10:55,15.1298862,0.0003669,53.2178,156.933,125.9772,234.1563,0.00056502,9.801e-05,0.0,0 STARLINK-5392,1 54794U 22175AN  24209.88258838  .00009801  00000-0  56502-3 0  9992,2 54794  53.2178 156.9330 0003669 125.9772 234.1563 15.12988620 91096,6905.229,95.176,529.627,524.56,0.0
54794.0,STARLINK-5392,PAYLOAD,2024-07-28 03:31:22,15.130216,0.0001558,53.2171,155.7355,149.1201,210.9885,0.00075455,0.00013207,0.0,0 STARLINK-5392,1 54794U 22175AN  24210.14679070  .00013207  00000-0  75455-3 0  9991,2 54794  53.2171 155.7355 0001558 149.1201 210.9885 15.13021600 88972,6905.128,95.174,528.069,525.918,0.0
54794.0,STARLINK-5392,PAYLOAD,2024-07-28 13:02:04,15.13047778,0.0001654,53.2172,153.9451,153.8325,206.2752,0.00079998,0.00014033,0.0,0 STARLINK-5392,1 54794U 22175AN  24210.54310827  .00014033  00000-0  79998-3 0  9991,2 54794  53.2172 153.9451 0001654 153.8325 206.2752 15.13047778 89039,6905.049,95.172,528.056,525.772,0.0
54794.0,STARLINK-5392,PAYLOAD,2024-07-29 03:18:05,15.13111653,0.0002564,53.2185,151.2657,152.6923,207.4206,0.00064957,0.00011354,0.0,0 STARLINK-5392,1 54794U 22175AN  24211.13756119  .00011354  00000-0  64957-3 0  9997,2 54794  53.2185 151.2657 0002564 152.6923 207.4206 15.13111653 89125,6904.854,95.168,528.49,524.949,0.0
54794.0,STARLINK-5392,PAYLOAD,2024-07-29 12:48:44,15.13153618,0.0002577,53.2199,149.4716,146.3633,213.7525,0.00060921,0.00010642,0.0,0 STARLINK-5392,1 54794U 22175AN  24211.53384608  .00010642  00000-0  60921-3 0  9997,2 54794  53.2199 149.4716 0002577 146.3633 213.7525 15.13153618 89184,6904.727,95.165,528.371,524.812,0.0
54794.0,STARLINK-5392,PAYLOAD,2024-07-29 19:09:10,15.13181021,0.0001798,53.2164,148.2704,163.6122,196.4931,0.00046725,8.095e-05,0.0,0 STARLINK-5392,1 54794U 22175AN  24211.79803830  .00008095  00000-0  46725-3 0  9993,2 54794  53.2164 148.2704 0001798 163.6122 196.4931 15.13181021 89221,6904.643,95.164,527.75,525.267,0.0
54794.0,STARLINK-5392,PAYLOAD,2024-07-30 03:04:41,15.13217322,0.0001564,53.2175,146.7804,154.5485,205.5586,0.00066207,0.00011614,0.0,0 STARLINK-5392,1 54794U 22175AN  24212.12825301  .00011614  00000-0  66207-3 0  9996,2 54794  53.2175 146.7804 0001564 154.5485 205.5586 15.13217322 89276,6904.533,95.161,527.478,525.318,0.0
